{
  "type": "FeatureCollection",
  "features": [
    {
      "type": "Feature",
      "properties": {
        "norad_id": 40115,
        "name": "WORLDVIEW-3 (WV-3)",
        "group": "resource",
        "lat": 30.2405025570636,
        "lon": 45.925612557965074,
        "alt_km": 613.4203605161638,
        "timestamp": "2025-12-04T03:47:54.210857+00:00",
        "meta_object_name": "WORLDVIEW-3 (WV-3)",
        "meta_object_id": "2014-048A",
        "meta_epoch": "2025-12-03T19:34:40.741248",
        "meta_mean_motion": 14.85474687,
        "meta_eccentricity": 0.0004111,
        "meta_inclination": 97.8626,
        "meta_ra_of_asc_node": 50.2081,
        "meta_arg_of_pericenter": 216.7913,
        "meta_mean_anomaly": 143.302,
        "meta_ephemeris_type": 0,
        "meta_classification_type": "U",
        "meta_norad_cat_id": 40115,
        "meta_element_set_no": 999,
        "meta_rev_at_epoch": 61291,
        "meta_bstar": 0.00022003,
        "meta_mean_motion_dot": 1.845e-05,
        "meta_mean_motion_ddot": 0,
        "tle_line1": "1 40115U 14048A   25337.81574932  .00001845  00000+0  22003-3 0  9994",
        "tle_line2": "2 40115  97.8626  50.2081 0004111 216.7913 143.3020 14.85474687612919"
      },
      "geometry": {
        "type": "Point",
        "coordinates": [
          45.925612557965074,
          30.2405025570636
        ]
      }
    },
    {
      "type": "Feature",
      "properties": {
        "norad_id": 40118,
        "name": "GAOFEN-2",
        "group": "resource",
        "lat": -1.1473865560690601,
        "lon": 37.47360179685357,
        "alt_km": 634.9734455849002,
        "timestamp": "2025-12-04T03:47:54.210867+00:00",
        "meta_object_name": "GAOFEN-2",
        "meta_object_id": "2014-049A",
        "meta_epoch": "2025-12-03T21:18:56.674080",
        "meta_mean_motion": 14.80582682,
        "meta_eccentricity": 0.000823,
        "meta_inclination": 98.0398,
        "meta_ra_of_asc_node": 37.0408,
        "meta_arg_of_pericenter": 138.4323,
        "meta_mean_anomaly": 221.7516,
        "meta_ephemeris_type": 0,
        "meta_classification_type": "U",
        "meta_norad_cat_id": 40118,
        "meta_element_set_no": 999,
        "meta_rev_at_epoch": 61033,
        "meta_bstar": 0.00016709,
        "meta_mean_motion_dot": 1.228e-05,
        "meta_mean_motion_ddot": 0,
        "tle_line1": "1 40118U 14049A   25337.88815595  .00001228  00000+0  16709-3 0  9999",
        "tle_line2": "2 40118  98.0398  37.0408 0008230 138.4323 221.7516 14.80582682610333"
      },
      "geometry": {
        "type": "Point",
        "coordinates": [
          37.47360179685357,
          -1.1473865560690601
        ]
      }
    },
    {
      "type": "Feature",
      "properties": {
        "norad_id": 40143,
        "name": "YAOGAN-21",
        "group": "resource",
        "lat": 74.79712655716664,
        "lon": -5.781881959363692,
        "alt_km": 481.240344234624,
        "timestamp": "2025-12-04T03:47:54.210877+00:00",
        "meta_object_name": "YAOGAN-21",
        "meta_object_id": "2014-053A",
        "meta_epoch": "2025-12-03T21:09:31.673376",
        "meta_mean_motion": 15.23501137,
        "meta_eccentricity": 0.0010205,
        "meta_inclination": 97.1772,
        "meta_ra_of_asc_node": 21.5805,
        "meta_arg_of_pericenter": 68.6122,
        "meta_mean_anomaly": 291.6203,
        "meta_ephemeris_type": 0,
        "meta_classification_type": "U",
        "meta_norad_cat_id": 40143,
        "meta_element_set_no": 999,
        "meta_rev_at_epoch": 62519,
        "meta_bstar": 0.00056619,
        "meta_mean_motion_dot": 0.00013477,
        "meta_mean_motion_ddot": 0,
        "tle_line1": "1 40143U 14053A   25337.88161659  .00013477  00000+0  56619-3 0  9990",
        "tle_line2": "2 40143  97.1772  21.5805 0010205  68.6122 291.6203 15.23501137625195"
      },
      "geometry": {
        "type": "Point",
        "coordinates": [
          -5.781881959363692,
          74.79712655716664
        ]
      }
    },
    {
      "type": "Feature",
      "properties": {
        "norad_id": 40275,
        "name": "YAOGAN-22",
        "group": "resource",
        "lat": -28.205695043817336,
        "lon": -64.38659846304522,
        "alt_km": 1205.2587691908366,
        "timestamp": "2025-12-04T03:47:54.210887+00:00",
        "meta_object_name": "YAOGAN-22",
        "meta_object_id": "2014-063A",
        "meta_epoch": "2025-12-03T08:29:16.965312",
        "meta_mean_motion": 13.15522307,
        "meta_eccentricity": 0.0005877,
        "meta_inclination": 100.7418,
        "meta_ra_of_asc_node": 120.6409,
        "meta_arg_of_pericenter": 270.8741,
        "meta_mean_anomaly": 89.1697,
        "meta_ephemeris_type": 0,
        "meta_classification_type": "U",
        "meta_norad_cat_id": 40275,
        "meta_element_set_no": 999,
        "meta_rev_at_epoch": 53406,
        "meta_bstar": 0.00015567,
        "meta_mean_motion_dot": 1.2e-07,
        "meta_mean_motion_ddot": 0,
        "tle_line1": "1 40275U 14063A   25337.35366858  .00000012  00000+0  15567-3 0  9995",
        "tle_line2": "2 40275 100.7418 120.6409 0005877 270.8741  89.1697 13.15522307534066"
      },
      "geometry": {
        "type": "Point",
        "coordinates": [
          -64.38659846304522,
          -28.205695043817336
        ]
      }
    },
    {
      "type": "Feature",
      "properties": {
        "norad_id": 40298,
        "name": "ASNARO",
        "group": "resource",
        "lat": -73.51364261944774,
        "lon": -151.60600995620854,
        "alt_km": 516.6581624988621,
        "timestamp": "2025-12-04T03:47:54.210898+00:00",
        "meta_object_name": "ASNARO",
        "meta_object_id": "2014-070A",
        "meta_epoch": "2025-12-04T01:05:52.938240",
        "meta_mean_motion": 15.19205311,
        "meta_eccentricity": 0.0005153,
        "meta_inclination": 97.3669,
        "meta_ra_of_asc_node": 54.2072,
        "meta_arg_of_pericenter": 147.48,
        "meta_mean_anomaly": 212.6753,
        "meta_ephemeris_type": 0,
        "meta_classification_type": "U",
        "meta_norad_cat_id": 40298,
        "meta_element_set_no": 999,
        "meta_rev_at_epoch": 61437,
        "meta_bstar": 0.00098587,
        "meta_mean_motion_dot": 0.00020733,
        "meta_mean_motion_ddot": 0,
        "tle_line1": "1 40298U 14070A   25338.04575160  .00020733  00000+0  98587-3 0  9998",
        "tle_line2": "2 40298  97.3669  54.2072 0005153 147.4800 212.6753 15.19205311614378"
      },
      "geometry": {
        "type": "Point",
        "coordinates": [
          -151.60600995620854,
          -73.51364261944774
        ]
      }
    },
    {
      "type": "Feature",
      "properties": {
        "norad_id": 40310,
        "name": "YAOGAN-24",
        "group": "resource",
        "lat": 59.59590378051693,
        "lon": -56.70859749395632,
        "alt_km": 628.6715312435081,
        "timestamp": "2025-12-04T03:47:54.210908+00:00",
        "meta_object_name": "YAOGAN-24",
        "meta_object_id": "2014-072A",
        "meta_epoch": "2025-12-03T20:45:06.973056",
        "meta_mean_motion": 14.76145826,
        "meta_eccentricity": 0.0014286,
        "meta_inclination": 98.1218,
        "meta_ra_of_asc_node": 108.9111,
        "meta_arg_of_pericenter": 165.5314,
        "meta_mean_anomaly": 194.6307,
        "meta_ephemeris_type": 0,
        "meta_classification_type": "U",
        "meta_norad_cat_id": 40310,
        "meta_element_set_no": 999,
        "meta_rev_at_epoch": 59490,
        "meta_bstar": 0.00022909,
        "meta_mean_motion_dot": 1.532e-05,
        "meta_mean_motion_ddot": 0,
        "tle_line1": "1 40310U 14072A   25337.86466404  .00001532  00000+0  22909-3 0  9995",
        "tle_line2": "2 40310  98.1218 108.9111 0014286 165.5314 194.6307 14.76145826594907"
      },
      "geometry": {
        "type": "Point",
        "coordinates": [
          -56.70859749395632,
          59.59590378051693
        ]
      }
    },
    {
      "type": "Feature",
      "properties": {
        "norad_id": 40336,
        "name": "CBERS 4",
        "group": "resource",
        "lat": 33.328379395906396,
        "lon": 30.93814548364325,
        "alt_km": 771.2472601683685,
        "timestamp": "2025-12-04T03:47:54.210918+00:00",
        "meta_object_name": "CBERS 4",
        "meta_object_id": "2014-079A",
        "meta_epoch": "2025-12-03T20:57:01.635840",
        "meta_mean_motion": 14.35528507,
        "meta_eccentricity": 0.0001471,
        "meta_inclination": 98.3322,
        "meta_ra_of_asc_node": 36.1928,
        "meta_arg_of_pericenter": 126.205,
        "meta_mean_anomaly": 233.9273,
        "meta_ephemeris_type": 0,
        "meta_classification_type": "U",
        "meta_norad_cat_id": 40336,
        "meta_element_set_no": 999,
        "meta_rev_at_epoch": 57593,
        "meta_bstar": 0.00010754,
        "meta_mean_motion_dot": 2.67e-06,
        "meta_mean_motion_ddot": 0,
        "tle_line1": "1 40336U 14079A   25337.87293560  .00000267  00000+0  10754-3 0  9991",
        "tle_line2": "2 40336  98.3322  36.1928 0001471 126.2050 233.9273 14.35528507575931"
      },
      "geometry": {
        "type": "Point",
        "coordinates": [
          30.93814548364325,
          33.328379395906396
        ]
      }
    }
  ]
}